[{"OBJECT_NAME":"OBJECT A","OBJECT_ID":"2023-069A","EPOCH":"2026-03-09T23:23:38.832000","MEAN_MOTION":15.439714,"ECCENTRICITY":0.00293771,"INCLINATION":40.9954,"RA_OF_ASC_NODE":47.9643,"ARG_OF_PERICENTER":310.3432,"MEAN_ANOMALY":49.4829,"EPHEMERIS_TYPE":0,"CLASSIFICATION_TYPE":"U","NORAD_CAT_ID":56731,"ELEMENT_SET_NO":999,"REV_AT_EPOCH":15774,"BSTAR":0.00033298107,"MEAN_MOTION_DOT":0.00015557,"MEAN_MOTION_DDOT":0},{"OBJECT_NAME":"COSMOS 2251 DEB","OBJECT_ID":"1993-036AKV","EPOCH":"2026-03-08T23:59:46.258080","MEAN_MOTION":15.49681487,"ECCENTRICITY":0.00309856,"INCLINATION":73.9257,"RA_OF_ASC_NODE":274.5009,"ARG_OF_PERICENTER":140.1001,"MEAN_ANOMALY":220.2497,"EPHEMERIS_TYPE":0,"CLASSIFICATION_TYPE":"U","NORAD_CAT_ID":35451,"ELEMENT_SET_NO":999,"REV_AT_EPOCH":68735,"BSTAR":0.002182937,"MEAN_MOTION_DOT":0.00125306,"MEAN_MOTION_DDOT":0}]
